{
  "type": "FeatureCollection",
  "features": [
    {
      "type": "Feature",
      "properties": {
        "norad_id": 44873,
        "name": "CSG-1",
        "group": "resource",
        "lat": 74.32106805911637,
        "lon": 136.76198122186813,
        "alt_km": 614.4175698528798,
        "timestamp": "2025-12-10T23:33:12.484505+00:00",
        "meta_object_name": "CSG-1",
        "meta_object_id": "2019-092A",
        "meta_epoch": "2025-12-10T15:06:31.859424",
        "meta_mean_motion": 14.82159799,
        "meta_eccentricity": 0.00014472,
        "meta_inclination": 97.881,
        "meta_ra_of_asc_node": 165.9855,
        "meta_arg_of_pericenter": 84.6956,
        "meta_mean_anomaly": 275.4422,
        "meta_ephemeris_type": 0,
        "meta_classification_type": "U",
        "meta_norad_cat_id": 44873,
        "meta_element_set_no": 999,
        "meta_rev_at_epoch": 32354,
        "meta_bstar": 0.00014041332,
        "meta_mean_motion_dot": 1.066e-05,
        "meta_mean_motion_ddot": 0,
        "tle_line1": "1 44873U 19092A   25344.62953541  .00001066  00000+0  14041-3 0  9995",
        "tle_line2": "2 44873  97.8810 165.9855 0001447  84.6956 275.4422 14.82159799323542"
      },
      "geometry": {
        "type": "Point",
        "coordinates": [
          136.76198122186813,
          74.32106805911637
        ]
      }
    },
    {
      "type": "Feature",
      "properties": {
        "norad_id": 46277,
        "name": "NEMO-HD",
        "group": "resource",
        "lat": -47.424073118090014,
        "lon": -143.83096568571213,
        "alt_km": 453.56870142724074,
        "timestamp": "2025-12-10T23:33:12.484514+00:00",
        "meta_object_name": "NEMO-HD",
        "meta_object_id": "2020-061F",
        "meta_epoch": "2025-12-10T14:46:16.862880",
        "meta_mean_motion": 15.40255079,
        "meta_eccentricity": 0.00020184,
        "meta_inclination": 97.2211,
        "meta_ra_of_asc_node": 43.7401,
        "meta_arg_of_pericenter": 58.6702,
        "meta_mean_anomaly": 301.4742,
        "meta_ephemeris_type": 0,
        "meta_classification_type": "U",
        "meta_norad_cat_id": 46277,
        "meta_element_set_no": 999,
        "meta_rev_at_epoch": 29291,
        "meta_bstar": 0.00038878083,
        "meta_mean_motion_dot": 0.00015573,
        "meta_mean_motion_ddot": 0,
        "tle_line1": "1 46277U 20061F   25344.61547295  .00015573  00000+0  38878-3 0  9999",
        "tle_line2": "2 46277  97.2211  43.7401 0002018  58.6702 301.4742 15.40255079292910"
      },
      "geometry": {
        "type": "Point",
        "coordinates": [
          -143.83096568571213,
          -47.424073118090014
        ]
      }
    },
    {
      "type": "Feature",
      "properties": {
        "norad_id": 46984,
        "name": "SENTINEL-6A",
        "group": "resource",
        "lat": -65.97803311763592,
        "lon": 79.85732528042,
        "alt_km": 1338.1406375606566,
        "timestamp": "2025-12-10T23:33:12.484523+00:00",
        "meta_object_name": "SENTINEL-6A",
        "meta_object_id": "2020-086A",
        "meta_epoch": "2025-12-09T23:39:14.637312",
        "meta_mean_motion": 12.8093052,
        "meta_eccentricity": 0.00077304,
        "meta_inclination": 66.0391,
        "meta_ra_of_asc_node": 168.0287,
        "meta_arg_of_pericenter": 269.1798,
        "meta_mean_anomaly": 90.8331,
        "meta_ephemeris_type": 0,
        "meta_classification_type": "U",
        "meta_norad_cat_id": 46984,
        "meta_element_set_no": 999,
        "meta_rev_at_epoch": 23609,
        "meta_bstar": 6.617319e-05,
        "meta_mean_motion_dot": -4.6e-07,
        "meta_mean_motion_ddot": 0,
        "tle_line1": "1 46984U 20086A   25343.98558608 -.00000046  00000+0  66173-4 0  9990",
        "tle_line2": "2 46984  66.0391 168.0287 0007730 269.1798  90.8331 12.80930520236093"
      },
      "geometry": {
        "type": "Point",
        "coordinates": [
          79.85732528042,
          -65.97803311763592
        ]
      }
    },
    {
      "type": "Feature",
      "properties": {
        "norad_id": 48079,
        "name": "GAOFEN-12 02",
        "group": "resource",
        "lat": -13.834548440573009,
        "lon": -19.022653188709864,
        "alt_km": 632.9823537307648,
        "timestamp": "2025-12-10T23:33:12.484532+00:00",
        "meta_object_name": "GAOFEN-12 02",
        "meta_object_id": "2021-026A",
        "meta_epoch": "2025-12-10T15:30:25.473888",
        "meta_mean_motion": 14.80671309,
        "meta_eccentricity": 0.00034937,
        "meta_inclination": 97.9851,
        "meta_ra_of_asc_node": 338.6627,
        "meta_arg_of_pericenter": 105.2445,
        "meta_mean_anomaly": 254.9154,
        "meta_ephemeris_type": 0,
        "meta_classification_type": "U",
        "meta_norad_cat_id": 48079,
        "meta_element_set_no": 999,
        "meta_rev_at_epoch": 25386,
        "meta_bstar": 0.00012298681,
        "meta_mean_motion_dot": 8.92e-06,
        "meta_mean_motion_ddot": 0,
        "tle_line1": "1 48079U 21026A   25344.64612817  .00000892  00000+0  12299-3 0  9996",
        "tle_line2": "2 48079  97.9851 338.6627 0003493 105.2445 254.9154 14.80671309253867"
      },
      "geometry": {
        "type": "Point",
        "coordinates": [
          -19.022653188709864,
          -13.834548440573009
        ]
      }
    },
    {
      "type": "Feature",
      "properties": {
        "norad_id": 48268,
        "name": "PLEIADES NEO 3",
        "group": "resource",
        "lat": 46.195398740937435,
        "lon": 49.12864860035938,
        "alt_km": 619.3818252256324,
        "timestamp": "2025-12-10T23:33:12.484541+00:00",
        "meta_object_name": "PLEIADES NEO 3",
        "meta_object_id": "2021-034A",
        "meta_epoch": "2025-12-10T15:14:21.199776",
        "meta_mean_motion": 14.81673059,
        "meta_eccentricity": 0.0001371,
        "meta_inclination": 97.895,
        "meta_ra_of_asc_node": 57.106,
        "meta_arg_of_pericenter": 94.9453,
        "meta_mean_anomaly": 265.1917,
        "meta_ephemeris_type": 0,
        "meta_classification_type": "U",
        "meta_norad_cat_id": 48268,
        "meta_element_set_no": 999,
        "meta_rev_at_epoch": 24973,
        "meta_bstar": 2.1076e-05,
        "meta_mean_motion_dot": 1.14e-06,
        "meta_mean_motion_ddot": 0,
        "tle_line1": "1 48268U 21034A   25344.63496759  .00000114  00000+0  21076-4 0  9990",
        "tle_line2": "2 48268  97.8950  57.1060 0001371  94.9453 265.1917 14.81673059249733"
      },
      "geometry": {
        "type": "Point",
        "coordinates": [
          49.12864860035938,
          46.195398740937435
        ]
      }
    },
    {
      "type": "Feature",
      "properties": {
        "norad_id": 49070,
        "name": "PLEIADES NEO 4",
        "group": "resource",
        "lat": -46.4918634786669,
        "lon": -130.9623406243077,
        "alt_km": 631.5791739939059,
        "timestamp": "2025-12-10T23:33:12.484550+00:00",
        "meta_object_name": "PLEIADES NEO 4",
        "meta_object_id": "2021-073E",
        "meta_epoch": "2025-12-09T14:07:00.443712",
        "meta_mean_motion": 14.81679595,
        "meta_eccentricity": 0.0001363,
        "meta_inclination": 97.8947,
        "meta_ra_of_asc_node": 56.0703,
        "meta_arg_of_pericenter": 89.0853,
        "meta_mean_anomaly": 271.0516,
        "meta_ephemeris_type": 0,
        "meta_classification_type": "U",
        "meta_norad_cat_id": 49070,
        "meta_element_set_no": 999,
        "meta_rev_at_epoch": 23329,
        "meta_bstar": 7.8728e-05,
        "meta_mean_motion_dot": 5.68e-06,
        "meta_mean_motion_ddot": 0,
        "tle_line1": "1 49070U 21073E   25343.58819958  .00000568  00000+0  78728-4 0  9997",
        "tle_line2": "2 49070  97.8947  56.0703 0001363  89.0853 271.0516 14.81679595233299"
      },
      "geometry": {
        "type": "Point",
        "coordinates": [
          -130.9623406243077,
          -46.4918634786669
        ]
      }
    },
    {
      "type": "Feature",
      "properties": {
        "norad_id": 49260,
        "name": "LANDSAT 9",
        "group": "resource",
        "lat": 38.35976244047352,
        "lon": 46.55702696178841,
        "alt_km": 699.1527650585622,
        "timestamp": "2025-12-10T23:33:12.484559+00:00",
        "meta_object_name": "LANDSAT 9",
        "meta_object_id": "2021-088A",
        "meta_epoch": "2025-12-10T15:08:08.172960",
        "meta_mean_motion": 14.57127046,
        "meta_eccentricity": 0.00011205,
        "meta_inclination": 98.2097,
        "meta_ra_of_asc_node": 52.7724,
        "meta_arg_of_pericenter": 95.127,
        "meta_mean_anomaly": 265.0056,
        "meta_ephemeris_type": 0,
        "meta_classification_type": "U",
        "meta_norad_cat_id": 49260,
        "meta_element_set_no": 999,
        "meta_rev_at_epoch": 22354,
        "meta_bstar": 0.00017140802,
        "meta_mean_motion_dot": 7.27e-06,
        "meta_mean_motion_ddot": 0,
        "tle_line1": "1 49260U 21088A   25344.63065015  .00000727  00000+0  17141-3 0  9996",
        "tle_line2": "2 49260  98.2097  52.7724 0001120  95.1270 265.0056 14.57127046223540"
      },
      "geometry": {
        "type": "Point",
        "coordinates": [
          46.55702696178841,
          38.35976244047352
        ]
      }
    }
  ]
}